[ {"OBJECT_NAME": "STARLINK-34005", "OBJECT_ID": "2025-098K", "EPOCH": "2026-06-11T22:11:37.516128", "MEAN_MOTION": 14.98336086, "ECCENTRICITY": 0.00029854, "INCLINATION": 70.002, "RA_OF_ASC_NODE": 37.0252, "ARG_OF_PERICENTER": 268.998, "MEAN_ANOMALY": 91.0837, "EPHEMERIS_TYPE": 0, "CLASSIFICATION_TYPE": "U", "NORAD_CAT_ID": 63935, "ELEMENT_SET_NO": 999, "REV_AT_EPOCH": 6067, "BSTAR": 0.00027355736, "MEAN_MOTION_DOT": 3.173e-05, "MEAN_MOTION_DDOT": 0}, {"OBJECT_NAME": "STARLINK-33974", "OBJECT_ID": "2025-099C", "EPOCH": "2026-06-11T06:28:31.585728", "MEAN_MOTION": 15.27580334, "ECCENTRICITY": 0.0001006, "INCLINATION": 43.0114, "RA_OF_ASC_NODE": 8.1265, "ARG_OF_PERICENTER": 282.6179, "MEAN_ANOMALY": 77.4561, "EPHEMERIS_TYPE": 0, "CLASSIFICATION_TYPE": "U", "NORAD_CAT_ID": 63954, "ELEMENT_SET_NO": 999, "REV_AT_EPOCH": 6164, "BSTAR": 0.00065215, "MEAN_MOTION_DOT": 0.00017727, "MEAN_MOTION_DDOT": 0}, {"OBJECT_NAME": "STARLINK-34028", "OBJECT_ID": "2025-099X", "EPOCH": "2026-06-10T20:45:46.881216", "MEAN_MOTION": 15.27598604, "ECCENTRICITY": 6.275e-05, "INCLINATION": 43.0122, "RA_OF_ASC_NODE": 6.7759, "ARG_OF_PERICENTER": 268.9539, "MEAN_ANOMALY": 91.1241, "EPHEMERIS_TYPE": 0, "CLASSIFICATION_TYPE": "U", "NORAD_CAT_ID": 63973, "ELEMENT_SET_NO": 999, "REV_AT_EPOCH": 6162, "BSTAR": 0.00067016031, "MEAN_MOTION_DOT": 0.00018235, "MEAN_MOTION_DDOT": 0}, {"OBJECT_NAME": "STARLINK-33871", "OBJECT_ID": "2025-101A", "EPOCH": "2026-06-10T19:31:49.235520", "MEAN_MOTION": 15.27595219, "ECCENTRICITY": 0.00039166, "INCLINATION": 42.9995, "RA_OF_ASC_NODE": 192.3691, "ARG_OF_PERICENTER": 265.2789, "MEAN_ANOMALY": 94.7615, "EPHEMERIS_TYPE": 0, "CLASSIFICATION_TYPE": "U", "NORAD_CAT_ID": 63994, "ELEMENT_SET_NO": 999, "REV_AT_EPOCH": 6122, "BSTAR": 0.00073088893, "MEAN_MOTION_DOT": 0.00019917, "MEAN_MOTION_DDOT": 0}, {"OBJECT_NAME": "STARLINK-34182", "OBJECT_ID": "2025-101V", "EPOCH": "2026-06-11T12:44:34.193184", "MEAN_MOTION": 15.27567037, "ECCENTRICITY": 0.000444, "INCLINATION": 43.0048, "RA_OF_ASC_NODE": 184.826, "ARG_OF_PERICENTER": 257.2284, "MEAN_ANOMALY": 102.8072, "EPHEMERIS_TYPE": 0, "CLASSIFICATION_TYPE": "U", "NORAD_CAT_ID": 64013, "ELEMENT_SET_NO": 999, "REV_AT_EPOCH": 6144, "BSTAR": 0.00042572, "MEAN_MOTION_DOT": 0.00011468, "MEAN_MOTION_DDOT": 0}, {"OBJECT_NAME": "STARLINK-34019", "OBJECT_ID": "2025-102L", "EPOCH": "2026-06-11T14:38:03.492960", "MEAN_MOTION": 14.98332676, "ECCENTRICITY": 0.00034599, "INCLINATION": 70.0002, "RA_OF_ASC_NODE": 237.5155, "ARG_OF_PERICENTER": 268.193, "MEAN_ANOMALY": 91.8833, "EPHEMERIS_TYPE": 0, "CLASSIFICATION_TYPE": "U", "NORAD_CAT_ID": 64032, "ELEMENT_SET_NO": 999, "REV_AT_EPOCH": 6003, "BSTAR": 6.024343e-05, "MEAN_MOTION_DOT": 6.26e-06, "MEAN_MOTION_DDOT": 0}, {"OBJECT_NAME": "TIANYI D", "OBJECT_ID": "2025-103D", "EPOCH": "2026-06-11T23:33:50.514624", "MEAN_MOTION": 15.1837701, "ECCENTRICITY": 0.00020494, "INCLINATION": 97.3831, "RA_OF_ASC_NODE": 234.3324, "ARG_OF_PERICENTER": 174.7136, "MEAN_ANOMALY": 185.4121, "EPHEMERIS_TYPE": 0, "CLASSIFICATION_TYPE": "U", "NORAD_CAT_ID": 64051, "ELEMENT_SET_NO": 999, "REV_AT_EPOCH": 5921, "BSTAR": 0.00016557483, "MEAN_MOTION_DOT": 3.336e-05, "MEAN_MOTION_DDOT": 0}, {"OBJECT_NAME": "STARLINK-11730 [DTC]", "OBJECT_ID": "2025-107L", "EPOCH": "2026-06-11T12:47:13.701408", "MEAN_MOTION": 15.70888078, "ECCENTRICITY": 0.0001617, "INCLINATION": 43.0001, "RA_OF_ASC_NODE": 252.8886, "ARG_OF_PERICENTER": 266.4808, "MEAN_ANOMALY": 93.5875, "EPHEMERIS_TYPE": 0, "CLASSIFICATION_TYPE": "U", "NORAD_CAT_ID": 64074, "ELEMENT_SET_NO": 999, "REV_AT_EPOCH": 6205, "BSTAR": 0.0013149, "MEAN_MOTION_DOT": 0.00172165, "MEAN_MOTION_DDOT": 0}, {"OBJECT_NAME": "COSMOS 2588", "OBJECT_ID": "2025-109A", "EPOCH": "2026-06-11T17:01:57.527040", "MEAN_MOTION": 15.28977448, "ECCENTRICITY": 0.0008918, "INCLINATION": 72.9713, "RA_OF_ASC_NODE": 221.0893, "ARG_OF_PERICENTER": 116.9225, "MEAN_ANOMALY": 243.2883, "EPHEMERIS_TYPE": 0, "CLASSIFICATION_TYPE": "U", "NORAD_CAT_ID": 64095, "ELEMENT_SET_NO": 999, "REV_AT_EPOCH": 5877, "BSTAR": 0.00026867, "MEAN_MOTION_DOT": 7.511e-05, "MEAN_MOTION_DDOT": 0}, {"OBJECT_NAME": "STARLINK-34064", "OBJECT_ID": "2025-110U", "EPOCH": "2026-06-11T17:32:23.495136", "MEAN_MOTION": 15.31725594, "ECCENTRICITY": 0.00010549, "INCLINATION": 53.162, "RA_OF_ASC_NODE": 309.7405, "ARG_OF_PERICENTER": 64.0578, "MEAN_ANOMALY": 296.0532, "EPHEMERIS_TYPE": 0, "CLASSIFICATION_TYPE": "U", "NORAD_CAT_ID": 64114, "ELEMENT_SET_NO": 999, "REV_AT_EPOCH": 6028, "BSTAR": 0.00069370225, "MEAN_MOTION_DOT": 0.0002124, "MEAN_MOTION_DDOT": 0}, {"OBJECT_NAME": "STARLINK-11716 [DTC]", "OBJECT_ID": "2025-111L", "EPOCH": "2026-06-11T18:36:45.963072", "MEAN_MOTION": 15.71210486, "ECCENTRICITY": 0.00040648, "INCLINATION": 43.0005, "RA_OF_ASC_NODE": 126.9718, "ARG_OF_PERICENTER": 238.7152, "MEAN_ANOMALY": 121.3318, "EPHEMERIS_TYPE": 0, "CLASSIFICATION_TYPE": "U", "NORAD_CAT_ID": 64133, "ELEMENT_SET_NO": 999, "REV_AT_EPOCH": 6148, "BSTAR": 0.0017775539, "MEAN_MOTION_DOT": 0.00238018, "MEAN_MOTION_DDOT": 0}, {"OBJECT_NAME": "STARLINK-34348", "OBJECT_ID": "2025-112G", "EPOCH": "2026-06-11T16:46:45.568992", "MEAN_MOTION": 15.05653916, "ECCENTRICITY": 0.00013712, "INCLINATION": 97.3714, "RA_OF_ASC_NODE": 213.3636, "ARG_OF_PERICENTER": 109.6682, "MEAN_ANOMALY": 250.4693, "EPHEMERIS_TYPE": 0, "CLASSIFICATION_TYPE": "U", "NORAD_CAT_ID": 64152, "ELEMENT_SET_NO": 999, "REV_AT_EPOCH": 5745, "BSTAR": 6.1973996e-05, "MEAN_MOTION_DOT": 8.37e-06, "MEAN_MOTION_DDOT": 0}, {"OBJECT_NAME": "STARLINK-34228", "OBJECT_ID": "2025-113B", "EPOCH": "2026-06-11T20:35:57.238368", "MEAN_MOTION": 15.31709389, "ECCENTRICITY": 9.463e-05, "INCLINATION": 53.16, "RA_OF_ASC_NODE": 12.96, "ARG_OF_PERICENTER": 69.8412, "MEAN_ANOMALY": 290.2691, "EPHEMERIS_TYPE": 0, "CLASSIFICATION_TYPE": "U", "NORAD_CAT_ID": 64171, "ELEMENT_SET_NO": 999, "REV_AT_EPOCH": 5949, "BSTAR": 0.00075158774, "MEAN_MOTION_DOT": 0.00023036, "MEAN_MOTION_DDOT": 0}, {"OBJECT_NAME": "STARLINK-34214", "OBJECT_ID": "2025-113W", "EPOCH": "2026-06-11T21:08:46.673664", "MEAN_MOTION": 15.30202811, "ECCENTRICITY": 0.00011395, "INCLINATION": 53.1595, "RA_OF_ASC_NODE": 13.8034, "ARG_OF_PERICENTER": 93.2392, "MEAN_ANOMALY": 266.8739, "EPHEMERIS_TYPE": 0, "CLASSIFICATION_TYPE": "U", "NORAD_CAT_ID": 64190, "ELEMENT_SET_NO": 999, "REV_AT_EPOCH": 5948, "BSTAR": 0.0008995103, "MEAN_MOTION_DOT": 0.00026379, "MEAN_MOTION_DDOT": 0}, {"OBJECT_NAME": "STARLINK-34332", "OBJECT_ID": "2025-117L", "EPOCH": "2026-06-11T18:24:22.299264", "MEAN_MOTION": 15.34412205, "ECCENTRICITY": 0.00011204, "INCLINATION": 53.1626, "RA_OF_ASC_NODE": 322.3193, "ARG_OF_PERICENTER": 80.9078, "MEAN_ANOMALY": 279.2051, "EPHEMERIS_TYPE": 0, "CLASSIFICATION_TYPE": "U", "NORAD_CAT_ID": 64213, "ELEMENT_SET_NO": 999, "REV_AT_EPOCH": 5896, "BSTAR": 0.00071060015, "MEAN_MOTION_DOT": 0.00023718, "MEAN_MOTION_DDOT": 0}, {"OBJECT_NAME": "STARLINK-11682 [DTC]", "OBJECT_ID": "2025-119B", "EPOCH": "2026-06-10T20:50:36.264192", "MEAN_MOTION": 15.70830546, "ECCENTRICITY": 0.00016573, "INCLINATION": 43.0005, "RA_OF_ASC_NODE": 7.9719, "ARG_OF_PERICENTER": 278.8073, "MEAN_ANOMALY": 81.2607, "EPHEMERIS_TYPE": 0, "CLASSIFICATION_TYPE": "U", "NORAD_CAT_ID": 64234, "ELEMENT_SET_NO": 999, "REV_AT_EPOCH": 5989, "BSTAR": 0.0013693897, "MEAN_MOTION_DOT": 0.00179027, "MEAN_MOTION_DDOT": 0}, {"OBJECT_NAME": "STARLINK-33893", "OBJECT_ID": "2025-119W", "EPOCH": "2026-06-11T05:39:06.807744", "MEAN_MOTION": 15.27599757, "ECCENTRICITY": 1.77e-05, "INCLINATION": 43.0091, "RA_OF_ASC_NODE": 138.9477, "ARG_OF_PERICENTER": 294.8726, "MEAN_ANOMALY": 65.2107, "EPHEMERIS_TYPE": 0, "CLASSIFICATION_TYPE": "U", "NORAD_CAT_ID": 64253, "ELEMENT_SET_NO": 999, "REV_AT_EPOCH": 5847, "BSTAR": 0.00053107, "MEAN_MOTION_DOT": 0.00014389, "MEAN_MOTION_DDOT": 0}, {"OBJECT_NAME": "STARLINK-34001", "OBJECT_ID": "2025-120S", "EPOCH": "2026-06-11T22:52:02.525664", "MEAN_MOTION": 15.30217554, "ECCENTRICITY": 0.0001012, "INCLINATION": 53.1588, "RA_OF_ASC_NODE": 39.1806, "ARG_OF_PERICENTER": 110.5635, "MEAN_ANOMALY": 249.5475, "EPHEMERIS_TYPE": 0, "CLASSIFICATION_TYPE": "U", "NORAD_CAT_ID": 64272, "ELEMENT_SET_NO": 999, "REV_AT_EPOCH": 5824, "BSTAR": 0.00066009901, "MEAN_MOTION_DOT": 0.00019252, "MEAN_MOTION_DDOT": 0}, {"OBJECT_NAME": "STARLINK-34428", "OBJECT_ID": "2025-123C", "EPOCH": "2026-06-11T18:27:42.919200", "MEAN_MOTION": 14.98332895, "ECCENTRICITY": 0.00025314, "INCLINATION": 70.0008, "RA_OF_ASC_NODE": 317.1333, "ARG_OF_PERICENTER": 270.1278, "MEAN_ANOMALY": 89.9591, "EPHEMERIS_TYPE": 0, "CLASSIFICATION_TYPE": "U", "NORAD_CAT_ID": 64293, "ELEMENT_SET_NO": 999, "REV_AT_EPOCH": 5693, "BSTAR": 0.00010260605, "MEAN_MOTION_DOT": 1.132e-05, "MEAN_MOTION_DDOT": 0}, {"OBJECT_NAME": "STARLINK-34384", "OBJECT_ID": "2025-123X", "EPOCH": "2026-06-11T20:45:55.335456", "MEAN_MOTION": 14.98335564, "ECCENTRICITY": 0.00026705, "INCLINATION": 70.0008, "RA_OF_ASC_NODE": 317.0658, "ARG_OF_PERICENTER": 271.0244, "MEAN_ANOMALY": 89.061, "EPHEMERIS_TYPE": 0, "CLASSIFICATION_TYPE": "U", "NORAD_CAT_ID": 64312, "ELEMENT_SET_NO": 999, "REV_AT_EPOCH": 5572, "BSTAR": 0.00013640501, "MEAN_MOTION_DOT": 1.535e-05, "MEAN_MOTION_DDOT": 0}, {"OBJECT_NAME": "STARLINK-34050", "OBJECT_ID": "2025-124Q", "EPOCH": "2026-06-11T08:00:01.999008", "MEAN_MOTION": 15.27542235, "ECCENTRICITY": 0.000166, "INCLINATION": 43.0033, "RA_OF_ASC_NODE": 312.8996, "ARG_OF_PERICENTER": 273.16, "MEAN_ANOMALY": 11.4789, "EPHEMERIS_TYPE": 0, "CLASSIFICATION_TYPE": "U", "NORAD_CAT_ID": 64331, "ELEMENT_SET_NO": 999, "REV_AT_EPOCH": 587, "BSTAR": 0.0013272, "MEAN_MOTION_DOT": 0.00036398, "MEAN_MOTION_DDOT": 0}]